{
  "type": "FeatureCollection",
  "features": [
    {
      "type": "Feature",
      "properties": {
        "norad_id": 38091,
        "name": "BEIDOU-2 G5 (C05)",
        "group": "gnss",
        "lat": -2.0791989454731534,
        "lon": -67.11764279558604,
        "alt_km": 35734.89485461992,
        "timestamp": "2025-12-02T10:50:47.515034+00:00",
        "meta_object_name": "BEIDOU-2 G5 (C05)",
        "meta_object_id": "2012-008A",
        "meta_epoch": "2025-12-02T03:47:25.694592",
        "meta_mean_motion": 1.00271964,
        "meta_eccentricity": 0.0012217,
        "meta_inclination": 3.0807,
        "meta_ra_of_asc_node": 70.737,
        "meta_arg_of_pericenter": 225.3992,
        "meta_mean_anomaly": 250.6864,
        "meta_ephemeris_type": 0,
        "meta_classification_type": "U",
        "meta_norad_cat_id": 38091,
        "meta_element_set_no": 999,
        "meta_rev_at_epoch": 5039,
        "meta_bstar": 0,
        "meta_mean_motion_dot": 7.7e-07,
        "meta_mean_motion_ddot": 0,
        "tle_line1": "1 38091U 12008A   25336.15793628  .00000077  00000+0  00000+0 0  9994",
        "tle_line2": "2 38091   3.0807  70.7370 0012217 225.3992 250.6864  1.00271964 50398"
      },
      "geometry": {
        "type": "Point",
        "coordinates": [
          -67.11764279558604,
          -2.0791989454731534
        ]
      }
    },
    {
      "type": "Feature",
      "properties": {
        "norad_id": 38250,
        "name": "BEIDOU-2 M3 (C11)",
        "group": "gnss",
        "lat": -31.20414206867328,
        "lon": 155.68185403917744,
        "alt_km": 21492.40688628785,
        "timestamp": "2025-12-02T10:50:47.515046+00:00",
        "meta_object_name": "BEIDOU-2 M3 (C11)",
        "meta_object_id": "2012-018A",
        "meta_epoch": "2025-12-01T01:13:35.126400",
        "meta_mean_motion": 1.86229725,
        "meta_eccentricity": 0.00245382,
        "meta_inclination": 55.9302,
        "meta_ra_of_asc_node": 311.5507,
        "meta_arg_of_pericenter": 273.3676,
        "meta_mean_anomaly": 86.348,
        "meta_ephemeris_type": 0,
        "meta_classification_type": "U",
        "meta_norad_cat_id": 38250,
        "meta_element_set_no": 999,
        "meta_rev_at_epoch": 9225,
        "meta_bstar": 0,
        "meta_mean_motion_dot": -5.3e-07,
        "meta_mean_motion_ddot": 0,
        "tle_line1": "1 38250U 12018A   25335.05110100 -.00000053  00000+0  00000+0 0  9993",
        "tle_line2": "2 38250  55.9302 311.5507 0024538 273.3676  86.3480  1.86229725 92251"
      },
      "geometry": {
        "type": "Point",
        "coordinates": [
          155.68185403917744,
          -31.20414206867328
        ]
      }
    },
    {
      "type": "Feature",
      "properties": {
        "norad_id": 38251,
        "name": "BEIDOU-2 M4 (C12)",
        "group": "gnss",
        "lat": -55.441461472131785,
        "lon": -148.8998073669187,
        "alt_km": 21491.27047304754,
        "timestamp": "2025-12-02T10:50:47.515058+00:00",
        "meta_object_name": "BEIDOU-2 M4 (C12)",
        "meta_object_id": "2012-018B",
        "meta_epoch": "2025-11-30T23:35:43.237248",
        "meta_mean_motion": 1.86229405,
        "meta_eccentricity": 0.00156645,
        "meta_inclination": 55.8317,
        "meta_ra_of_asc_node": 310.7829,
        "meta_arg_of_pericenter": 276.4205,
        "meta_mean_anomaly": 83.3972,
        "meta_ephemeris_type": 0,
        "meta_classification_type": "U",
        "meta_norad_cat_id": 38251,
        "meta_element_set_no": 999,
        "meta_rev_at_epoch": 9225,
        "meta_bstar": 0,
        "meta_mean_motion_dot": -5.3e-07,
        "meta_mean_motion_ddot": 0,
        "tle_line1": "1 38251U 12018B   25334.98313932 -.00000053  00000+0  00000+0 0  9993",
        "tle_line2": "2 38251  55.8317 310.7829 0015664 276.4205  83.3972  1.86229405 92255"
      },
      "geometry": {
        "type": "Point",
        "coordinates": [
          -148.8998073669187,
          -55.441461472131785
        ]
      }
    },
    {
      "type": "Feature",
      "properties": {
        "norad_id": 38652,
        "name": "SES-5 (EGNOS/PRN 136)",
        "group": "gnss",
        "lat": -0.07599521987758487,
        "lon": -120.79176427572982,
        "alt_km": 35777.70913766914,
        "timestamp": "2025-12-02T10:50:47.515070+00:00",
        "meta_object_name": "SES-5 (EGNOS/PRN 136)",
        "meta_object_id": "2012-036A",
        "meta_epoch": "2025-12-02T03:32:04.662816",
        "meta_mean_motion": 1.00271679,
        "meta_eccentricity": 0.0002028,
        "meta_inclination": 0.0607,
        "meta_ra_of_asc_node": 301.8693,
        "meta_arg_of_pericenter": 309.7176,
        "meta_mean_anomaly": 237.6761,
        "meta_ephemeris_type": 0,
        "meta_classification_type": "U",
        "meta_norad_cat_id": 38652,
        "meta_element_set_no": 999,
        "meta_rev_at_epoch": 4249,
        "meta_bstar": 0,
        "meta_mean_motion_dot": 5.5e-07,
        "meta_mean_motion_ddot": 0,
        "tle_line1": "1 38652U 12036A   25336.14727619  .00000055  00000+0  00000+0 0  9990",
        "tle_line2": "2 38652   0.0607 301.8693 0002028 309.7176 237.6761  1.00271679 42498"
      },
      "geometry": {
        "type": "Point",
        "coordinates": [
          -120.79176427572982,
          -0.07599521987758487
        ]
      }
    },
    {
      "type": "Feature",
      "properties": {
        "norad_id": 38775,
        "name": "BEIDOU-2 M6 (C14)",
        "group": "gnss",
        "lat": 55.42147443402226,
        "lon": 174.78275178301243,
        "alt_km": 21532.844036030303,
        "timestamp": "2025-12-02T10:50:47.515084+00:00",
        "meta_object_name": "BEIDOU-2 M6 (C14)",
        "meta_object_id": "2012-050B",
        "meta_epoch": "2025-11-30T03:46:17.715072",
        "meta_mean_motion": 1.86230748,
        "meta_eccentricity": 0.00108176,
        "meta_inclination": 56.3677,
        "meta_ra_of_asc_node": 69.4852,
        "meta_arg_of_pericenter": 346.8684,
        "meta_mean_anomaly": 13.1099,
        "meta_ephemeris_type": 0,
        "meta_classification_type": "U",
        "meta_norad_cat_id": 38775,
        "meta_element_set_no": 999,
        "meta_rev_at_epoch": 8960,
        "meta_bstar": 0,
        "meta_mean_motion_dot": -3.1e-07,
        "meta_mean_motion_ddot": 0,
        "tle_line1": "1 38775U 12050B   25334.15714948 -.00000031  00000+0  00000+0 0  9997",
        "tle_line2": "2 38775  56.3677  69.4852 0010817 346.8684  13.1099  1.86230748 89601"
      },
      "geometry": {
        "type": "Point",
        "coordinates": [
          174.78275178301243,
          55.42147443402226
        ]
      }
    },
    {
      "type": "Feature",
      "properties": {
        "norad_id": 38779,
        "name": "GSAT-10 (GAGAN/PRN 128)",
        "group": "gnss",
        "lat": 0.03256131048565811,
        "lon": -42.80216435824776,
        "alt_km": 35797.740867152424,
        "timestamp": "2025-12-02T10:50:47.515096+00:00",
        "meta_object_name": "GSAT-10 (GAGAN/PRN 128)",
        "meta_object_id": "2012-051B",
        "meta_epoch": "2025-12-02T03:54:21.802176",
        "meta_mean_motion": 1.00269269,
        "meta_eccentricity": 0.0002606,
        "meta_inclination": 0.0354,
        "meta_ra_of_asc_node": 262.0904,
        "meta_arg_of_pericenter": 234.6575,
        "meta_mean_anomaly": 76.0892,
        "meta_ephemeris_type": 0,
        "meta_classification_type": "U",
        "meta_norad_cat_id": 38779,
        "meta_element_set_no": 999,
        "meta_rev_at_epoch": 4812,
        "meta_bstar": 0,
        "meta_mean_motion_dot": -1.43e-06,
        "meta_mean_motion_ddot": 0,
        "tle_line1": "1 38779U 12051B   25336.16275234 -.00000143  00000+0  00000+0 0  9999",
        "tle_line2": "2 38779   0.0354 262.0904 0002606 234.6575  76.0892  1.00269269 48129"
      },
      "geometry": {
        "type": "Point",
        "coordinates": [
          -42.80216435824776,
          0.03256131048565811
        ]
      }
    },
    {
      "type": "Feature",
      "properties": {
        "norad_id": 38833,
        "name": "GPS BIIF-3  (PRN 24)",
        "group": "gnss",
        "lat": 39.63944826457356,
        "lon": -170.5798312393141,
        "alt_km": 19719.85891793708,
        "timestamp": "2025-12-02T10:50:47.515108+00:00",
        "meta_object_name": "GPS BIIF-3  (PRN 24)",
        "meta_object_id": "2012-053A",
        "meta_epoch": "2025-12-01T21:10:58.228032",
        "meta_mean_motion": 2.00564835,
        "meta_eccentricity": 0.0175482,
        "meta_inclination": 53.5559,
        "meta_ra_of_asc_node": 151.6834,
        "meta_arg_of_pericenter": 63.8436,
        "meta_mean_anomaly": 297.9871,
        "meta_ephemeris_type": 0,
        "meta_classification_type": "U",
        "meta_norad_cat_id": 38833,
        "meta_element_set_no": 999,
        "meta_rev_at_epoch": 9548,
        "meta_bstar": 0,
        "meta_mean_motion_dot": 1.16e-06,
        "meta_mean_motion_ddot": 0,
        "tle_line1": "1 38833U 12053A   25335.88261838  .00000116  00000+0  00000+0 0  9994",
        "tle_line2": "2 38833  53.5559 151.6834 0175482  63.8436 297.9871  2.00564835 95486"
      },
      "geometry": {
        "type": "Point",
        "coordinates": [
          -170.5798312393141,
          39.63944826457356
        ]
      }
    }
  ]
}